[{"OBJECT_NAME":"ONEWEB-0505","OBJECT_ID":"2022-138L","EPOCH":"2025-09-01T06:18:54.534816","MEAN_MOTION":13.19725961,"ECCENTRICITY":0.0001645,"INCLINATION":87.9279,"RA_OF_ASC_NODE":2.3894,"ARG_OF_PERICENTER":79.5309,"MEAN_ANOMALY":280.6009,"EPHEMERIS_TYPE":0,"CLASSIFICATION_TYPE":"U","NORAD_CAT_ID":54123,"ELEMENT_SET_NO":999,"REV_AT_EPOCH":13870,"BSTAR":0.00017991291,"MEAN_MOTION_DOT":8.5e-7,"MEAN_MOTION_DDOT":0},{"OBJECT_NAME":"ONEWEB-0506","OBJECT_ID":"2022-138M","EPOCH":"2025-09-01T05:42:29.343168","MEAN_MOTION":13.19724432,"ECCENTRICITY":0.00017214,"INCLINATION":87.9279,"RA_OF_ASC_NODE":2.3914,"ARG_OF_PERICENTER":91.9572,"MEAN_ANOMALY":268.1758,"EPHEMERIS_TYPE":0,"CLASSIFICATION_TYPE":"U","NORAD_CAT_ID":54124,"ELEMENT_SET_NO":999,"REV_AT_EPOCH":13869,"BSTAR":0.00014431438,"MEAN_MOTION_DOT":7.1e-7,"MEAN_MOTION_DDOT":0},{"OBJECT_NAME":"ONEWEB-0507","OBJECT_ID":"2022-138N","EPOCH":"2025-09-01T06:12:03.193920","MEAN_MOTION":13.19727305,"ECCENTRICITY":0.00016308,"INCLINATION":87.9268,"RA_OF_ASC_NODE":2.4386,"ARG_OF_PERICENTER":92.7705,"MEAN_ANOMALY":267.3614,"EPHEMERIS_TYPE":0,"CLASSIFICATION_TYPE":"U","NORAD_CAT_ID":54125,"ELEMENT_SET_NO":999,"REV_AT_EPOCH":13874,"BSTAR":0.00012034017,"MEAN_MOTION_DOT":6.1e-7,"MEAN_MOTION_DDOT":0},{"OBJECT_NAME":"ONEWEB-0508","OBJECT_ID":"2022-138P","EPOCH":"2025-09-01T06:07:30.316800","MEAN_MOTION":13.19724484,"ECCENTRICITY":0.00015003,"INCLINATION":87.9275,"RA_OF_ASC_NODE":2.4238,"ARG_OF_PERICENTER":88.8741,"MEAN_ANOMALY":271.2564,"EPHEMERIS_TYPE":0,"CLASSIFICATION_TYPE":"U","NORAD_CAT_ID":54126,"ELEMENT_SET_NO":999,"REV_AT_EPOCH":13872,"BSTAR":0.00010639223,"MEAN_MOTION_DOT":5.6e-7,"MEAN_MOTION_DDOT":0},{"OBJECT_NAME":"ONEWEB-0509","OBJECT_ID":"2022-138Q","EPOCH":"2025-09-01T05:31:08.793696","MEAN_MOTION":13.19726069,"ECCENTRICITY":0.00017147,"INCLINATION":87.9281,"RA_OF_ASC_NODE":2.3911,"ARG_OF_PERICENTER":94.0882,"MEAN_ANOMALY":266.0447,"EPHEMERIS_TYPE":0,"CLASSIFICATION_TYPE":"U","NORAD_CAT_ID":54127,"ELEMENT_SET_NO":999,"REV_AT_EPOCH":13869,"BSTAR":0.00023641849,"MEAN_MOTION_DOT":1.08e-6,"MEAN_MOTION_DDOT":0},{"OBJECT_NAME":"ONEWEB-0510","OBJECT_ID":"2022-138R","EPOCH":"2025-09-01T06:30:02.176128","MEAN_MOTION":13.20770364,"ECCENTRICITY":0.00023095,"INCLINATION":87.9291,"RA_OF_ASC_NODE":332.0278,"ARG_OF_PERICENTER":110.7107,"MEAN_ANOMALY":249.4274,"EPHEMERIS_TYPE":0,"CLASSIFICATION_TYPE":"U","NORAD_CAT_ID":54128,"ELEMENT_SET_NO":999,"REV_AT_EPOCH":14114,"BSTAR":0.00018410009,"MEAN_MOTION_DOT":8.8e-7,"MEAN_MOTION_DDOT":0},{"OBJECT_NAME":"ONEWEB-0511","OBJECT_ID":"2022-138S","EPOCH":"2025-09-01T07:15:45.687168","MEAN_MOTION":13.19725083,"ECCENTRICITY":0.00020522,"INCLINATION":87.9278,"RA_OF_ASC_NODE":2.3815,"ARG_OF_PERICENTER":93.4599,"MEAN_ANOMALY":266.6768,"EPHEMERIS_TYPE":0,"CLASSIFICATION_TYPE":"U","NORAD_CAT_ID":54129,"ELEMENT_SET_NO":999,"REV_AT_EPOCH":13873,"BSTAR":0.00011286405,"MEAN_MOTION_DOT":5.8e-7,"MEAN_MOTION_DDOT":0},{"OBJECT_NAME":"ONEWEB-0512","OBJECT_ID":"2022-138T","EPOCH":"2025-09-01T07:04:23.734560","MEAN_MOTION":13.19725357,"ECCENTRICITY":0.00017287,"INCLINATION":87.9263,"RA_OF_ASC_NODE":2.4241,"ARG_OF_PERICENTER":84.7312,"MEAN_ANOMALY":275.4018,"EPHEMERIS_TYPE":0,"CLASSIFICATION_TYPE":"U","NORAD_CAT_ID":54130,"ELEMENT_SET_NO":999,"REV_AT_EPOCH":13870,"BSTAR":0.00027988022,"MEAN_MOTION_DOT":1.25e-6,"MEAN_MOTION_DDOT":0},{"OBJECT_NAME":"ONEWEB-0513","OBJECT_ID":"2022-138U","EPOCH":"2025-09-01T06:29:12.428736","MEAN_MOTION":13.20314008,"ECCENTRICITY":0.00020673,"INCLINATION":87.9283,"RA_OF_ASC_NODE":2.3892,"ARG_OF_PERICENTER":80.3666,"MEAN_ANOMALY":279.7701,"EPHEMERIS_TYPE":0,"CLASSIFICATION_TYPE":"U","NORAD_CAT_ID":54131,"ELEMENT_SET_NO":999,"REV_AT_EPOCH":13859,"BSTAR":0.00029384951,"MEAN_MOTION_DOT":1.32e-6,"MEAN_MOTION_DDOT":0},{"OBJECT_NAME":"ONEWEB-0514","OBJECT_ID":"2022-138V","EPOCH":"2025-09-01T05:37:57.721440","MEAN_MOTION":13.19726037,"ECCENTRICITY":0.00018663,"INCLINATION":87.928,"RA_OF_ASC_NODE":2.4081,"ARG_OF_PERICENTER":99.6893,"MEAN_ANOMALY":260.4451,"EPHEMERIS_TYPE":0,"CLASSIFICATION_TYPE":"U","NORAD_CAT_ID":54132,"ELEMENT_SET_NO":999,"REV_AT_EPOCH":13871,"BSTAR":0.00019762709,"MEAN_MOTION_DOT":9.2e-7,"MEAN_MOTION_DDOT":0},{"OBJECT_NAME":"ONEWEB-0515","OBJECT_ID":"2022-138W","EPOCH":"2025-09-01T06:11:49.406208","MEAN_MOTION":13.20771034,"ECCENTRICITY":0.00019445,"INCLINATION":87.9298,"RA_OF_ASC_NODE":332.0082,"ARG_OF_PERICENTER":127.0239,"MEAN_ANOMALY":233.1073,"EPHEMERIS_TYPE":0,"CLASSIFICATION_TYPE":"U","NORAD_CAT_ID":54133,"ELEMENT_SET_NO":999,"REV_AT_EPOCH":14116,"BSTAR":0.00017244532,"MEAN_MOTION_DOT":8.3e-7,"MEAN_MOTION_DDOT":0},{"OBJECT_NAME":"ONEWEB-0516","OBJECT_ID":"2022-138X","EPOCH":"2025-09-01T06:50:45.407328","MEAN_MOTION":13.19726172,"ECCENTRICITY":0.00016555,"INCLINATION":87.9265,"RA_OF_ASC_NODE":2.4309,"ARG_OF_PERICENTER":97.1918,"MEAN_ANOMALY":262.9402,"EPHEMERIS_TYPE":0,"CLASSIFICATION_TYPE":"U","NORAD_CAT_ID":54134,"ELEMENT_SET_NO":999,"REV_AT_EPOCH":13872,"BSTAR":0.00037371698,"MEAN_MOTION_DOT":1.63e-6,"MEAN_MOTION_DDOT":0},{"OBJECT_NAME":"ONEWEB-0517","OBJECT_ID":"2022-138Y","EPOCH":"2025-09-01T06:21:10.761696","MEAN_MOTION":13.19725774,"ECCENTRICITY":0.0002097,"INCLINATION":87.9279,"RA_OF_ASC_NODE":2.3971,"ARG_OF_PERICENTER":95.2656,"MEAN_ANOMALY":264.8716,"EPHEMERIS_TYPE":0,"CLASSIFICATION_TYPE":"U","NORAD_CAT_ID":54135,"ELEMENT_SET_NO":999,"REV_AT_EPOCH":13872,"BSTAR":0.00025604968,"MEAN_MOTION_DOT":1.15e-6,"MEAN_MOTION_DDOT":0},{"OBJECT_NAME":"ONEWEB-0518","OBJECT_ID":"2022-138Z","EPOCH":"2025-09-01T06:48:26.835552","MEAN_MOTION":13.19727949,"ECCENTRICITY":0.0001698,"INCLINATION":87.9278,"RA_OF_ASC_NODE":2.4299,"ARG_OF_PERICENTER":93.3912,"MEAN_ANOMALY":266.7415,"EPHEMERIS_TYPE":0,"CLASSIFICATION_TYPE":"U","NORAD_CAT_ID":54136,"ELEMENT_SET_NO":999,"REV_AT_EPOCH":13872,"BSTAR":0.00038458928,"MEAN_MOTION_DOT":1.67e-6,"MEAN_MOTION_DDOT":0},{"OBJECT_NAME":"ONEWEB-0519","OBJECT_ID":"2022-138AA","EPOCH":"2025-09-01T05:35:41.523936","MEAN_MOTION":13.19725832,"ECCENTRICITY":0.0002019,"INCLINATION":87.9278,"RA_OF_ASC_NODE":2.3955,"ARG_OF_PERICENTER":94.4883,"MEAN_ANOMALY":265.6481,"EPHEMERIS_TYPE":0,"CLASSIFICATION_TYPE":"U","NORAD_CAT_ID":54137,"ELEMENT_SET_NO":999,"REV_AT_EPOCH":13872,"BSTAR":0.00013501174,"MEAN_MOTION_DOT":6.7e-7,"MEAN_MOTION_DDOT":0},{"OBJECT_NAME":"ONEWEB-0520","OBJECT_ID":"2022-138AB","EPOCH":"2025-09-01T06:25:42.017952","MEAN_MOTION":13.19724847,"ECCENTRICITY":0.00016143,"INCLINATION":87.928,"RA_OF_ASC_NODE":2.3925,"ARG_OF_PERICENTER":89.4796,"MEAN_ANOMALY":270.6522,"EPHEMERIS_TYPE":0,"CLASSIFICATION_TYPE":"U","NORAD_CAT_ID":54138,"ELEMENT_SET_NO":999,"REV_AT_EPOCH":13871,"BSTAR":0.00025261438,"MEAN_MOTION_DOT":1.14e-6,"MEAN_MOTION_DDOT":0},{"OBJECT_NAME":"ONEWEB-0521","OBJECT_ID":"2022-138AC","EPOCH":"2025-09-01T07:13:29.690112","MEAN_MOTION":13.19726054,"ECCENTRICITY":0.00020618,"INCLINATION":87.9278,"RA_OF_ASC_NODE":2.3722,"ARG_OF_PERICENTER":98.8199,"MEAN_ANOMALY":261.3167,"EPHEMERIS_TYPE":0,"CLASSIFICATION_TYPE":"U","NORAD_CAT_ID":54139,"ELEMENT_SET_NO":999,"REV_AT_EPOCH":13866,"BSTAR":0.0001765979,"MEAN_MOTION_DOT":8.4e-7,"MEAN_MOTION_DDOT":0}]
