ONEWEB-0505             
1 54123U 22138L   25244.26313119  .00000085  00000+0  17991-3 0  9996
2 54123  87.9279   2.3894 0001645  79.5309 280.6009 13.19725961138702
ONEWEB-0506             
1 54124U 22138M   25244.23783962  .00000071  00000+0  14431-3 0  9992
2 54124  87.9279   2.3914 0001721  91.9572 268.1758 13.19724432138693
ONEWEB-0507             
1 54125U 22138N   25244.25837030  .00000061  00000+0  12034-3 0  9997
2 54125  87.9268   2.4386 0001630  92.7705 267.3614 13.19727305138742
ONEWEB-0508             
1 54126U 22138P   25244.25521200  .00000056  00000+0  10639-3 0  9990
2 54126  87.9275   2.4238 0001500  88.8741 271.2564 13.19724484138720
ONEWEB-0509             
1 54127U 22138Q   25244.22996289  .00000108  00000+0  23642-3 0  9997
2 54127  87.9281   2.3911 0001714  94.0882 266.0447 13.19726069138696
ONEWEB-0510             
1 54128U 22138R   25244.27085852  .00000088  00000+0  18410-3 0  9992
2 54128  87.9291 332.0278 0002309 110.7107 249.4274 13.20770364141140
ONEWEB-0511             
1 54129U 22138S   25244.30261212  .00000058  00000+0  11286-3 0  9994
2 54129  87.9278   2.3815 0002052  93.4599 266.6768 13.19725083138733
ONEWEB-0512             
1 54130U 22138T   25244.29471915  .00000125  00000+0  27988-3 0  9998
2 54130  87.9263   2.4241 0001728  84.7312 275.4018 13.19725357138705
ONEWEB-0513             
1 54131U 22138U   25244.27028274  .00000132  00000+0  29385-3 0  9994
2 54131  87.9283   2.3892 0002067  80.3666 279.7701 13.20314008138592
ONEWEB-0514             
1 54132U 22138V   25244.23469585  .00000092  00000+0  19763-3 0  9999
2 54132  87.9280   2.4081 0001866  99.6893 260.4451 13.19726037138712
ONEWEB-0515             
1 54133U 22138W   25244.25821072  .00000083  00000+0  17245-3 0  9998
2 54133  87.9298 332.0082 0001944 127.0239 233.1073 13.20771034141161
ONEWEB-0516             
1 54134U 22138X   25244.28524777  .00000163  00000+0  37372-3 0  9996
2 54134  87.9265   2.4309 0001655  97.1918 262.9402 13.19726172138721
ONEWEB-0517             
1 54135U 22138Y   25244.26470789  .00000115  00000+0  25605-3 0  9991
2 54135  87.9279   2.3971 0002097  95.2656 264.8716 13.19725774138726
ONEWEB-0518             
1 54136U 22138Z   25244.28364393  .00000167  00000+0  38459-3 0  9995
2 54136  87.9278   2.4299 0001698  93.3912 266.7415 13.19727949138723
ONEWEB-0519             
1 54137U 22138AA  25244.23311949  .00000067  00000+0  13501-3 0  9990
2 54137  87.9278   2.3955 0002019  94.4883 265.6481 13.19725832138729
ONEWEB-0520             
1 54138U 22138AB  25244.26784743  .00000114  00000+0  25261-3 0  9999
2 54138  87.9280   2.3925 0001614  89.4796 270.6522 13.19724847138713
ONEWEB-0521             
1 54139U 22138AC  25244.30103808  .00000084  00000+0  17660-3 0  9992
2 54139  87.9278   2.3722 0002061  98.8199 261.3167 13.19726054138662
